NORAD_CAT_ID,OBJECT_NAME,OBJECT_TYPE,EPOCH,MEAN_MOTION,ECCENTRICITY,INCLINATION,RA_OF_ASC_NODE,ARG_OF_PERICENTER,MEAN_ANOMALY,BSTAR,MEAN_MOTION_DOT,MEAN_MOTION_DDOT,TLE_LINE0,TLE_LINE1,TLE_LINE2,SEMIMAJOR_AXIS,PERIOD,APOGEE,PERIGEE,DECAYED
53784.0,STARLINK-4687,PAYLOAD,2024-05-19 14:06:26,15.08836026,0.0001484,53.2186,352.9811,90.4726,269.6436,0.00013802,1.909e-05,0.0,0 STARLINK-4687,1 53784U 22111M   24140.58780505  .00001909  00000-0  13802-3 0  9999,2 53784  53.2186 352.9811 0001484  90.4726 269.6436 15.08836026 94196,6917.893,95.438,540.784,538.731,0.0
53784.0,STARLINK-4687,PAYLOAD,2024-05-19 20:27:58,15.08841273,0.0001202,53.2178,351.7947,74.3154,285.797,5.2578e-05,5.49e-06,0.0,0 STARLINK-4687,1 53784U 22111M   24140.85276257  .00000549  00000-0  52578-4 0  9996,2 53784  53.2178 351.7947 0001202  74.3154 285.7970 15.08841273 93425,6917.876,95.437,540.573,538.91,0.0
53784.0,STARLINK-4687,PAYLOAD,2024-05-19 23:38:44,15.08847283,0.0001216,53.2185,351.1965,102.6511,257.4618,0.00014771,2.064e-05,0.0,0 STARLINK-4687,1 53784U 22111M   24140.98523851  .00002064  00000-0  14771-3 0  9991,2 53784  53.2185 351.1965 0001216 102.6511 257.4618 15.08847283 94258,6917.858,95.437,540.564,538.882,0.0
53784.0,STARLINK-4687,PAYLOAD,2024-05-20 23:29:31,15.08848215,0.0001625,53.2171,346.7355,98.4617,261.656,0.0003334,5.023e-05,0.0,0 STARLINK-4687,1 53784U 22111M   24141.97883952  .00005023  00000-0  33340-3 0  9993,2 53784  53.2171 346.7355 0001625  98.4617 261.6560 15.08848215 93594,6917.855,95.437,540.844,538.596,0.0
53784.0,STARLINK-4687,PAYLOAD,2024-05-21 20:09:32,15.08840698,0.0001105,53.2176,342.8623,112.078,248.033,8.25e-05,1.025e-05,0.0,0 STARLINK-4687,1 53784U 22111M   24142.83996115  .00001025  00000-0  82500-4 0  9996,2 53784  53.2176 342.8623 0001105 112.0780 248.0330 15.08840698 93727,6917.878,95.438,540.508,538.979,0.0
53784.0,STARLINK-4687,PAYLOAD,2024-05-23 18:15:44,15.08838863,0.0001204,53.2182,334.2492,98.1185,261.9944,0.00010085,1.317e-05,0.0,0 STARLINK-4687,1 53784U 22111M   24144.76092695  .00001317  00000-0  10085-3 0  9992,2 53784  53.2182 334.2492 0001204  98.1185 261.9944 15.08838863 94015,6917.884,95.438,540.582,538.916,0.0
53784.0,STARLINK-4687,PAYLOAD,2024-05-24 21:17:17,15.08848538,8.09e-05,53.2162,329.1882,78.5987,281.5096,0.00017653,2.524e-05,0.0,0 STARLINK-4687,1 53784U 22111M   24145.88700553  .00002524  00000-0  17653-3 0  9994,2 53784  53.2162 329.1882 0000809  78.5987 281.5096 15.08848538 94185,6917.854,95.437,540.279,539.16,0.0
53784.0,STARLINK-4687,PAYLOAD,2024-05-25 11:35:45,15.0884615,0.0002037,53.2163,326.5128,148.5957,211.5157,-0.00028374,-4.802e-05,0.0,0 STARLINK-4687,1 53784U 22111M   24146.48316635 -.00004802  00000-0 -28374-3 0  9990,2 53784  53.2163 326.5128 0002037 148.5957 211.5157 15.08846150 95089,6917.862,95.437,541.136,538.317,0.0
53784.0,STARLINK-4687,PAYLOAD,2024-05-25 19:32:41,15.0883845,9.5e-05,53.2169,325.0286,92.784,267.3261,9.8038e-05,1.273e-05,0.0,0 STARLINK-4687,1 53784U 22111M   24146.81437167  .00001273  00000-0  98038-4 0  9993,2 53784  53.2169 325.0286 0000950  92.7840 267.3261 15.08838450 94322,6917.885,95.438,540.407,539.093,0.0
53784.0,STARLINK-4687,PAYLOAD,2024-05-26 11:26:33,15.08840108,8.82e-05,53.217,322.0565,90.3017,269.8076,-1.8518e-06,-3.17e-06,0.0,0 STARLINK-4687,1 53784U 22111M   24147.47677350 -.00000317  00000-0 -18518-5 0  9992,2 53784  53.2170 322.0565 0000882  90.3017 269.8076 15.08840108 95230,6917.88,95.438,540.355,539.135,0.0
53784.0,STARLINK-4687,PAYLOAD,2024-05-26 20:58:51,15.08850281,9.53e-05,53.2177,320.2717,93.9918,266.1183,9.623e-05,1.244e-05,0.0,0 STARLINK-4687,1 53784U 22111M   24147.87420755  .00001244  00000-0  96230-4 0  9995,2 53784  53.2177 320.2717 0000953  93.9918 266.1183 15.08850281 94482,6917.849,95.437,540.373,539.055,0.0
53784.0,STARLINK-4687,PAYLOAD,2024-05-27 11:17:20,15.08840695,0.0001064,53.2188,317.5986,65.3072,294.8031,0.00016804,2.388e-05,0.0,0 STARLINK-4687,1 53784U 22111M   24148.47037260  .00002388  00000-0  16804-3 0  9995,2 53784  53.2188 317.5986 0001064  65.3072 294.8031 15.08840695 94577,6917.878,95.438,540.479,539.007,0.0
53784.0,STARLINK-4687,PAYLOAD,2024-05-27 17:38:52,15.08846046,0.0001071,53.2181,316.4066,73.8148,286.2962,0.00012979,1.779e-05,0.0,0 STARLINK-4687,1 53784U 22111M   24148.73532929  .00001779  00000-0  12979-3 0  9998,2 53784  53.2181 316.4066 0001071  73.8148 286.2962 15.08846046 95422,6917.862,95.437,540.468,538.986,0.0
53784.0,STARLINK-4687,PAYLOAD,2024-05-28 17:29:39,15.08847059,9.97e-05,53.2177,311.9471,80.118,279.9924,7.3297e-05,8.79e-06,0.0,0 STARLINK-4687,1 53784U 22111M   24149.72892657  .00000879  00000-0  73297-4 0  9996,2 53784  53.2177 311.9471 0000997  80.1180 279.9924 15.08847059 95578,6917.859,95.437,540.414,539.034,0.0
53784.0,STARLINK-4687,PAYLOAD,2024-05-29 10:58:54,15.0883867,9.41e-05,53.2182,308.678,88.4687,271.6413,1.6799e-05,-2e-07,0.0,0 STARLINK-4687,1 53784U 22111M   24150.45757189 -.00000020  00000-0  16799-4 0  9991,2 53784  53.2182 308.6780 0000941  88.4687 271.6413 15.08838670 94875,6917.884,95.438,540.4,539.098,0.0
53784.0,STARLINK-4687,PAYLOAD,2024-05-29 14:09:40,15.08838686,0.0001159,53.2192,308.0828,101.5942,258.518,-3.0169e-06,-3.36e-06,0.0,0 STARLINK-4687,1 53784U 22111M   24150.59005235 -.00000336  00000-0 -30169-5 0  9993,2 53784  53.2192 308.0828 0001159 101.5942 258.5180 15.08838686 95701,6917.884,95.438,540.551,538.948,0.0
53784.0,STARLINK-4687,PAYLOAD,2024-05-29 17:20:26,15.08841054,0.0001141,53.2191,307.4871,97.7819,262.3303,-1.1955e-06,-3.07e-06,0.0,0 STARLINK-4687,1 53784U 22111M   24150.72253058 -.00000307  00000-0 -11955-5 0  9996,2 53784  53.2191 307.4871 0001141  97.7819 262.3303 15.08841054 95726,6917.877,95.437,540.531,538.953,0.0
53784.0,STARLINK-4687,PAYLOAD,2024-05-30 14:00:27,15.08845048,0.0001033,53.2183,303.6197,108.963,251.1474,4.3167e-05,3.99e-06,0.0,0 STARLINK-4687,1 53784U 22111M   24151.58364781  .00000399  00000-0  43167-4 0  9995,2 53784  53.2183 303.6197 0001033 108.9630 251.1474 15.08845048 95858,6917.865,95.437,540.445,539.015,0.0
53784.0,STARLINK-4687,PAYLOAD,2024-05-30 15:35:49,15.08856718,0.0001134,53.218,303.3235,119.2989,240.8116,-7.155e-05,-1.427e-05,0.0,0 STARLINK-4687,1 53784U 22111M   24151.64988358 -.00001427  00000-0 -71550-4 0  9996,2 53784  53.2180 303.3235 0001134 119.2989 240.8116 15.08856718 95055,6917.829,95.436,540.479,538.91,0.0
53784.0,STARLINK-4687,PAYLOAD,2024-05-31 09:05:05,15.08838755,0.0001033,53.2179,300.0566,74.1728,285.9378,0.00014225,1.977e-05,0.0,0 STARLINK-4687,1 53784U 22111M   24152.37853084  .00001977  00000-0  14225-3 0  9997,2 53784  53.2179 300.0566 0001033  74.1728 285.9378 15.08838755 95165,6917.884,95.438,540.464,539.035,0.0
53784.0,STARLINK-4687,PAYLOAD,2024-05-31 13:51:14,15.08836872,0.0001016,53.2179,299.1596,74.7366,285.3739,8.4985e-05,1.065e-05,0.0,0 STARLINK-4687,1 53784U 22111M   24152.57725421  .00001065  00000-0  84985-4 0  9991,2 53784  53.2179 299.1596 0001016  74.7366 285.3739 15.08836872 96008,6917.89,95.438,540.458,539.052,0.0
53784.0,STARLINK-4687,PAYLOAD,2024-05-31 15:26:37,15.08835766,0.0001021,53.2178,298.8624,68.1569,291.9532,6.884e-05,8.08e-06,0.0,0 STARLINK-4687,1 53784U 22111M   24152.64349520  .00000808  00000-0  68840-4 0  9997,2 53784  53.2178 298.8624 0001021  68.1569 291.9532 15.08835766 96019,6917.893,95.438,540.465,539.052,0.0
53784.0,STARLINK-4687,PAYLOAD,2024-06-01 02:34:21,15.08807395,9.09e-05,53.2173,296.7828,97.4269,262.6826,0.00044071,6.727e-05,0.0,0 STARLINK-4687,1 53784U 22111M   24153.10718761  .00006727  00000-0  44071-3 0  9991,2 53784  53.2173 296.7828 0000909  97.4269 262.6826 15.08807395 95278,6917.98,95.44,540.474,539.216,0.0
53784.0,STARLINK-4687,PAYLOAD,2024-06-01 08:55:53,15.08830008,0.0001295,53.2177,295.5909,74.5078,285.6057,9.1958e-06,-1.42e-06,0.0,0 STARLINK-4687,1 53784U 22111M   24153.37214383 -.00000142  00000-0  91958-5 0  9995,2 53784  53.2177 295.5909 0001295  74.5078 285.6057 15.08830008 95315,6917.911,95.438,540.672,538.88,0.0
53784.0,STARLINK-4687,PAYLOAD,2024-06-01 13:42:03,15.08816901,0.0001671,53.2173,294.7009,83.4012,276.717,0.00019553,2.823e-05,0.0,0 STARLINK-4687,1 53784U 22111M   24153.57087167  .00002823  00000-0  19553-3 0  9991,2 53784  53.2173 294.7009 0001671  83.4012 276.7170 15.08816901 96154,6917.951,95.439,540.972,538.66,0.0
53784.0,STARLINK-4687,PAYLOAD,2024-06-01 18:28:11,15.08837072,0.0001223,53.2172,293.807,81.4166,278.6964,1.5725e-05,-3.8e-07,0.0,0 STARLINK-4687,1 53784U 22111M   24153.76958067 -.00000038  00000-0  15725-4 0  9993,2 53784  53.2172 293.8070 0001223  81.4166 278.6964 15.08837072 95379,6917.889,95.438,540.6,538.908,0.0
53784.0,STARLINK-4687,PAYLOAD,2024-06-02 15:08:12,15.0883205,7.36e-05,53.2164,289.9383,98.5431,261.5645,0.00022408,3.28e-05,0.0,0 STARLINK-4687,1 53784U 22111M   24154.63070008  .00003280  00000-0  22408-3 0  9996,2 53784  53.2164 289.9383 0000736  98.5431 261.5645 15.08832050 96318,6917.905,95.438,540.279,539.261,0.0
53784.0,STARLINK-4687,PAYLOAD,2024-06-03 02:15:53,15.08849984,8.55e-05,53.2168,287.8574,73.8533,286.2554,9.4053e-05,1.21e-05,0.0,0 STARLINK-4687,1 53784U 22111M   24155.09437041  .00001210  00000-0  94053-4 0  9998,2 53784  53.2168 287.8574 0000855  73.8533 286.2554 15.08849984 95576,6917.85,95.437,540.306,539.123,0.0
53784.0,STARLINK-4687,PAYLOAD,2024-06-03 14:58:59,15.08840772,0.0001004,53.2165,285.4801,88.7754,271.3353,0.00020155,2.921e-05,0.0,0 STARLINK-4687,1 53784U 22111M   24155.62429638  .00002921  00000-0  20155-3 0  9991,2 53784  53.2165 285.4801 0001004  88.7754 271.3353 15.08840772 96464,6917.878,95.438,540.438,539.048,0.0
53784.0,STARLINK-4687,PAYLOAD,2024-06-03 18:09:44,15.08850747,0.0001118,53.2167,284.8838,97.6788,262.4331,0.00014178,1.97e-05,0.0,0 STARLINK-4687,1 53784U 22111M   24155.75677052  .00001970  00000-0  14178-3 0  9991,2 53784  53.2167 284.8838 0001118  97.6788 262.4331 15.08850747 96483,6917.848,95.437,540.486,538.939,0.0
